NORAD_CAT_ID,OBJECT_NAME,OBJECT_TYPE,EPOCH,MEAN_MOTION,ECCENTRICITY,INCLINATION,RA_OF_ASC_NODE,ARG_OF_PERICENTER,MEAN_ANOMALY,BSTAR,MEAN_MOTION_DOT,MEAN_MOTION_DDOT,TLE_LINE0,TLE_LINE1,TLE_LINE2,SEMIMAJOR_AXIS,PERIOD,APOGEE,PERIGEE,DECAYED
52581.0,STARLINK-3915,PAYLOAD,2024-04-27 19:01:14,15.08829747,8.32e-05,53.2167,295.79,112.9673,247.1407,-6.2822e-05,-1.287e-05,0.0,0 STARLINK-3915,1 52581U 22051AX  24118.79252393 -.00001287  00000-0 -62822-4 0  9991,2 52581  53.2167 295.7900 0000832 112.9673 247.1407 15.08829747108792,6917.912,95.438,540.352,539.201,0.0
52581.0,STARLINK-3915,PAYLOAD,2024-04-28 04:33:32,15.08838224,0.0001537,53.2203,294.0058,82.2102,277.9064,4.6499e-05,4.52e-06,0.0,0 STARLINK-3915,1 52581U 22051AX  24119.18996019  .00000452  00000-0  46499-4 0  9998,2 52581  53.2203 294.0058 0001537  82.2102 277.9064 15.08838224108923,6917.886,95.438,540.814,538.688,0.0
52581.0,STARLINK-3915,PAYLOAD,2024-04-28 20:27:23,15.0883991,0.0001172,53.2187,291.0275,65.2958,294.8156,3.3037e-05,2.38e-06,0.0,0 STARLINK-3915,1 52581U 22051AX  24119.85236079  .00000238  00000-0  33037-4 0  9991,2 52581  53.2187 291.0275 0001172  65.2958 294.8156 15.08839910108953,6917.881,95.438,540.556,538.935,0.0
52581.0,STARLINK-3915,PAYLOAD,2024-04-29 04:24:18,15.08849798,0.0001332,53.2195,289.5423,74.4784,285.6355,0.00011295,1.511e-05,0.0,0 STARLINK-3915,1 52581U 22051AX  24120.18355195  .00001511  00000-0  11295-3 0  9996,2 52581  53.2195 289.5423 0001332  74.4784 285.6355 15.08849798109074,6917.85,95.437,540.637,538.794,0.0
52581.0,STARLINK-3915,PAYLOAD,2024-04-29 10:45:52,15.08837506,0.0001833,53.2163,288.3549,73.5943,286.5251,0.00027819,4.142e-05,0.0,0 STARLINK-3915,1 52581U 22051AX  24120.44852045  .00004142  00000-0  27819-3 0  9993,2 52581  53.2163 288.3549 0001833  73.5943 286.5251 15.08837506109112,6917.888,95.438,541.021,538.485,0.0
52581.0,STARLINK-3915,PAYLOAD,2024-04-29 20:18:11,15.08837616,0.0001288,53.2181,286.5687,70.5368,289.5764,0.00013323,1.833e-05,0.0,0 STARLINK-3915,1 52581U 22051AX  24120.84596110  .00001833  00000-0  13323-3 0  9994,2 52581  53.2181 286.5687 0001288  70.5368 289.5764 15.08837616109100,6917.888,95.438,540.644,538.862,0.0
52581.0,STARLINK-3915,PAYLOAD,2024-04-30 04:15:06,15.08841803,0.000139,53.2187,285.0834,73.1596,286.9548,0.00014218,1.976e-05,0.0,0 STARLINK-3915,1 52581U 22051AX  24121.17716013  .00001976  00000-0  14218-3 0  9999,2 52581  53.2187 285.0834 0001390  73.1596 286.9548 15.08841803109159,6917.875,95.437,540.701,538.778,0.0
52581.0,STARLINK-3915,PAYLOAD,2024-04-30 18:33:34,15.08840727,0.0001105,53.2173,282.4076,74.9197,285.1917,6.6203e-05,7.66e-06,0.0,0 STARLINK-3915,1 52581U 22051AX  24121.77332163  .00000766  00000-0  66203-4 0  9993,2 52581  53.2173 282.4076 0001105  74.9197 285.1917 15.08840727109316,6917.878,95.438,540.508,538.979,0.0
52581.0,STARLINK-3915,PAYLOAD,2024-05-01 04:05:53,15.08851626,0.0001102,53.2179,280.6212,78.1727,281.9388,0.00017512,2.501e-05,0.0,0 STARLINK-3915,1 52581U 22051AX  24122.17075554  .00002501  00000-0  17512-3 0  9993,2 52581  53.2179 280.6212 0001102  78.1727 281.9388 15.08851626109378,6917.845,95.437,540.472,538.948,0.0
52581.0,STARLINK-3915,PAYLOAD,2024-05-01 10:27:26,15.08845103,0.0001256,53.2174,279.4349,72.9915,287.1214,0.00024155,3.559e-05,0.0,0 STARLINK-3915,1 52581U 22051AX  24122.43571936  .00003559  00000-0  24155-3 0  9992,2 52581  53.2174 279.4349 0001256  72.9915 287.1214 15.08845103109415,6917.865,95.437,540.599,538.861,0.0
52581.0,STARLINK-3915,PAYLOAD,2024-05-01 16:48:58,15.08845235,0.0001278,53.2176,278.2452,73.5454,286.5678,0.0002117,3.083e-05,0.0,0 STARLINK-3915,1 52581U 22051AX  24122.70067892  .00003083  00000-0  21170-3 0  9999,2 52581  53.2176 278.2452 0001278  73.5454 286.5678 15.08845235109387,6917.864,95.437,540.613,538.845,0.0
52581.0,STARLINK-3915,PAYLOAD,2024-05-02 13:29:00,15.08827181,0.0001122,53.2177,274.3777,80.195,279.9169,-9.3693e-05,-1.778e-05,0.0,0 STARLINK-3915,1 52581U 22051AX  24123.56180607 -.00001778  00000-0 -93693-4 0  9995,2 52581  53.2177 274.3777 0001122  80.1950 279.9169 15.08827181109581,6917.92,95.438,540.561,539.008,0.0
52581.0,STARLINK-3915,PAYLOAD,2024-05-02 15:04:23,15.08830867,0.0001294,53.2174,274.0803,82.8173,277.2966,-3.484e-05,-8.42e-06,0.0,0 STARLINK-3915,1 52581U 22051AX  24123.62804515 -.00000842  00000-0 -34840-4 0  9993,2 52581  53.2174 274.0803 0001294  82.8173 277.2966 15.08830867109526,6917.908,95.438,540.668,538.878,0.0
52581.0,STARLINK-3915,PAYLOAD,2024-05-02 19:50:32,15.08837992,0.000129,53.2177,273.187,88.3283,271.7857,-7.5312e-06,-4.08e-06,0.0,0 STARLINK-3915,1 52581U 22051AX  24123.82676186 -.00000408  00000-0 -75312-5 0  9994,2 52581  53.2177 273.1870 0001290  88.3283 271.7857 15.08837992109627,6917.887,95.438,540.644,538.859,0.0
52581.0,STARLINK-3915,PAYLOAD,2024-05-03 14:55:09,15.08838971,0.0001284,53.2176,269.6186,90.0219,270.092,0.00013384,1.843e-05,0.0,0 STARLINK-3915,1 52581U 22051AX  24124.62164279  .00001843  00000-0  13384-3 0  9999,2 52581  53.2176 269.6186 0001284  90.0219 270.0920 15.08838971109674,6917.884,95.438,540.637,538.86,0.0
52581.0,STARLINK-3915,PAYLOAD,2024-05-03 19:41:19,15.08840048,0.0001185,53.2164,268.7255,87.3793,272.7335,0.00012697,1.733e-05,0.0,0 STARLINK-3915,1 52581U 22051AX  24124.82036314  .00001733  00000-0  12697-3 0  9993,2 52581  53.2164 268.7255 0001185  87.3793 272.7335 15.08840048109705,6917.88,95.438,540.565,538.925,0.0
52581.0,STARLINK-3915,PAYLOAD,2024-05-04 13:10:33,15.08851723,0.0001425,53.2167,265.4544,83.6636,276.4518,-0.00035443,-5.926e-05,0.0,0 STARLINK-3915,1 52581U 22051AX  24125.54899632 -.00005926  00000-0 -35443-3 0  9997,2 52581  53.2167 265.4544 0001425  83.6636 276.4518 15.08851723109880,6917.845,95.437,540.695,538.724,0.0
52581.0,STARLINK-3915,PAYLOAD,2024-05-04 16:21:20,15.08840196,0.0001101,53.2155,264.8611,82.8359,277.2758,0.0002281,3.344e-05,0.0,0 STARLINK-3915,1 52581U 22051AX  24125.68148457  .00003344  00000-0  22810-3 0  9998,2 52581  53.2155 264.8611 0001101  82.8359 277.2758 15.08840196109909,6917.88,95.438,540.506,538.983,0.0
52581.0,STARLINK-3915,PAYLOAD,2024-05-05 01:53:38,15.0885214,0.0001091,53.2161,263.0762,80.0464,280.0652,0.0003148,4.727e-05,0.0,0 STARLINK-3915,1 52581U 22051AX  24126.07891791  .00004727  00000-0  31480-3 0  9997,2 52581  53.2161 263.0762 0001091  80.0464 280.0652 15.08852140109962,6917.843,95.437,540.463,538.954,0.0
52581.0,STARLINK-3915,PAYLOAD,2024-05-05 13:01:21,15.08836913,0.0001236,53.2168,260.9956,91.2732,268.8402,-9.9323e-06,-4.46e-06,0.0,0 STARLINK-3915,1 52581U 22051AX  24126.54260449 -.00000446  00000-0 -99323-5 0  9997,2 52581  53.2168 260.9956 0001236  91.2732 268.8402 15.08836913110030,6917.89,95.438,540.61,538.9,0.0
52581.0,STARLINK-3915,PAYLOAD,2024-05-05 14:36:44,15.0883836,0.0001247,53.2169,260.6983,91.4864,268.6271,6.6915e-05,7.77e-06,0.0,0 STARLINK-3915,1 52581U 22051AX  24126.60884577  .00000777  00000-0  66915-4 0  9993,2 52581  53.2169 260.6983 0001247  91.4864 268.6271 15.08838360109979,6917.885,95.438,540.613,538.888,0.0
52581.0,STARLINK-3915,PAYLOAD,2024-05-06 01:44:25,15.08848528,0.0001307,53.2178,258.6176,92.5755,267.5386,0.00016428,2.328e-05,0.0,0 STARLINK-3915,1 52581U 22051AX  24127.07252037  .00002328  00000-0  16428-3 0  9992,2 52581  53.2178 258.6176 0001307  92.5755 267.5386 15.08848528110118,6917.854,95.437,540.623,538.815,0.0
52581.0,STARLINK-3915,PAYLOAD,2024-05-06 12:52:08,15.08838817,0.0001173,53.2164,256.5349,92.3434,267.7692,5.558e-05,5.97e-06,0.0,0 STARLINK-3915,1 52581U 22051AX  24127.53620429  .00000597  00000-0  55580-4 0  9996,2 52581  53.2164 256.5349 0001173  92.3434 267.7692 15.08838817110184,6917.884,95.438,540.56,538.938,0.0
52581.0,STARLINK-3915,PAYLOAD,2024-05-06 14:27:31,15.08841029,0.0001341,53.2166,256.2378,89.7424,270.3722,0.00010232,1.341e-05,0.0,0 STARLINK-3915,1 52581U 22051AX  24127.60244420  .00001341  00000-0  10232-3 0  9999,2 52581  53.2166 256.2378 0001341  89.7424 270.3722 15.08841029110128,6917.877,95.437,540.67,538.815,0.0
52581.0,STARLINK-3915,PAYLOAD,2024-05-07 14:18:18,15.08836784,0.0001214,53.2176,251.7748,82.5501,277.5629,1.37e-05,-7e-07,0.0,0 STARLINK-3915,1 52581U 22051AX  24128.59604629 -.00000070  00000-0  13700-4 0  9992,2 52581  53.2176 251.7748 0001214  82.5501 277.5629 15.08836784110279,6917.89,95.438,540.595,538.915,0.0
52581.0,STARLINK-3915,PAYLOAD,2024-05-07 15:53:41,15.08836554,0.0001196,53.2171,251.4773,94.1139,265.9989,3.8524e-05,3.25e-06,0.0,0 STARLINK-3915,1 52581U 22051AX  24128.66228736  .00000325  00000-0  38524-4 0  9994,2 52581  53.2171 251.4773 0001196  94.1139 265.9989 15.08836554110358,6917.891,95.438,540.583,538.929,0.0
52581.0,STARLINK-3915,PAYLOAD,2024-05-08 14:09:05,15.08843198,0.0001175,53.2155,247.3173,76.7498,283.3625,9.0481e-05,1.153e-05,0.0,0 STARLINK-3915,1 52581U 22051AX  24129.58964651  .00001153  00000-0  90481-4 0  9999,2 52581  53.2155 247.3173 0001175  76.7498 283.3625 15.08843198110420,6917.871,95.437,540.548,538.923,0.0
52581.0,STARLINK-3915,PAYLOAD,2024-05-09 01:16:46,15.08858007,0.0001163,53.2166,245.2354,83.9115,276.201,0.00028279,4.218e-05,0.0,0 STARLINK-3915,1 52581U 22051AX  24130.05331675  .00004218  00000-0  28279-3 0  9997,2 52581  53.2166 245.2354 0001163  83.9115 276.2010 15.08858007110562,6917.825,95.436,540.495,538.886,0.0
52581.0,STARLINK-3915,PAYLOAD,2024-05-09 12:24:29,15.08835076,0.000129,53.2181,243.1527,88.1513,271.9627,8.2308e-05,1.022e-05,0.0,0 STARLINK-3915,1 52581U 22051AX  24130.51701064  .00001022  00000-0  82308-4 0  9995,2 52581  53.2181 243.1527 0001290  88.1513 271.9627 15.08835076110633,6917.895,95.438,540.653,538.868,0.0
52581.0,STARLINK-3915,PAYLOAD,2024-05-09 13:59:52,15.08837511,0.0001322,53.2183,242.8552,90.5999,269.5145,0.00011511,1.544e-05,0.0,0 STARLINK-3915,1 52581U 22051AX  24130.58324981  .00001544  00000-0  11511-3 0  9997,2 52581  53.2183 242.8552 0001322  90.5999 269.5145 15.08837511110577,6917.888,95.438,540.668,538.838,0.0
